COMMENT,ORIGINATOR,NORAD_CAT_ID,OBJECT_NAME,OBJECT_TYPE,CLASSIFICATION_TYPE,INTLDES,EPOCH,EPOCH_MICROSECONDS,MEAN_MOTION,ECCENTRICITY,INCLINATION,RA_OF_ASC_NODE,ARG_OF_PERICENTER,MEAN_ANOMALY,EPHEMERIS_TYPE,ELEMENT_SET_NO,REV_AT_EPOCH,BSTAR,MEAN_MOTION_DOT,MEAN_MOTION_DDOT,FILE,TLE_LINE0,TLE_LINE1,TLE_LINE2,OBJECT_ID,OBJECT_NUMBER,SEMIMAJOR_AXIS,PERIOD,APOGEE,PERIGEE,DECAYED
"GENERATED VIA SPACETRACK.ORG API","18 SPCS","55095","SPACEBEE-162","PAYLOAD","U","23001CQ","2024-05-28 17:58:57","917280","15.45876819","0.0010581","97.4196","215.5865","209.3609","150.7046","0","999","7807","0.0010117","0.00049394","0","4330098","0 SPACEBEE-162","1 55095U 23001CQ  24149.74928145  .00049394  00000-0  10117-2 0  9991","2 55095  97.4196 215.5865 0010581 209.3609 150.7046 15.45876819 78077","2023-001CQ","55095","6806.940","93.151","436.007","421.603","0"
"GENERATED VIA SPACETRACK.ORG API","18 SPCS","55095","SPACEBEE-162","PAYLOAD","U","23001CQ","2024-05-29 03:18:13","751424","15.45919294","0.0010647","97.4197","215.9835","208.2197","151.8476","0","999","7813","0.001063","0.00051998","0","4330677","0 SPACEBEE-162","1 55095U 23001CQ  24150.13765916  .00051998  00000-0  10630-2 0  9994","2 55095  97.4197 215.9835 0010647 208.2197 151.8476 15.45919294 78133","2023-001CQ","55095","6806.815","93.148","435.927","421.433","0"
"GENERATED VIA SPACETRACK.ORG API","18 SPCS","55095","SPACEBEE-162","PAYLOAD","U","23001CQ","2024-05-29 03:18:13","751424","15.45919294","0.0010647","97.4197","215.9835","208.2197","151.8476","0","999","7813","0.001063","0.00051998","0","4330703","0 SPACEBEE-162","1 55095U 23001CQ  24150.13765916  .00051998  00000-0  10630-2 0  9994","2 55095  97.4197 215.9835 0010647 208.2197 151.8476 15.45919294 78133","2023-001CQ","55095","6806.815","93.148","435.927","421.433","0"
"GENERATED VIA SPACETRACK.ORG API","18 SPCS","55095","SPACEBEE-162","PAYLOAD","U","23001CQ","2024-05-29 17:17:05","766432","15.45986183","0.0010665","97.4199","216.5798","206.4431","153.6275","0","999","7822","0.0012019","0.00058991","0","4331016","0 SPACEBEE-162","1 55095U 23001CQ  24150.72020563  .00058991  00000-0  12019-2 0  9994","2 55095  97.4199 216.5798 0010665 206.4431 153.6275 15.45986183 78229","2023-001CQ","55095","6806.619","93.144","435.743","421.225","0"
"GENERATED VIA SPACETRACK.ORG API","18 SPCS","55095","SPACEBEE-162","PAYLOAD","U","23001CQ","2024-05-30 04:09:31","325472","15.46042259","0.0010775","97.4201","217.0432","204.8596","155.2136","0","999","7829","0.0011361","0.00055844","0","4331273","0 SPACEBEE-162","1 55095U 23001CQ  24151.17327923  .00055844  00000-0  11361-2 0  9997","2 55095  97.4201 217.0432 0010775 204.8596 155.2136 15.46042259 78299","2023-001CQ","55095","6806.454","93.141","435.653","420.985","0"
"GENERATED VIA SPACETRACK.ORG API","18 SPCS","55095","SPACEBEE-162","PAYLOAD","U","23001CQ","2024-05-30 04:09:31","325472","15.46042259","0.0010775","97.4201","217.0432","204.8596","155.2136","0","999","7829","0.0011361","0.00055844","0","4331646","0 SPACEBEE-162","1 55095U 23001CQ  24151.17327923  .00055844  00000-0  11361-2 0  9997","2 55095  97.4201 217.0432 0010775 204.8596 155.2136 15.46042259 78299","2023-001CQ","55095","6806.454","93.141","435.653","420.985","0"
"GENERATED VIA SPACETRACK.ORG API","18 SPCS","55095","SPACEBEE-162","PAYLOAD","U","23001CQ","2024-05-30 18:08:19","336704","15.4611084","0.0010743","97.42","217.6397","203.4744","156.6016","0","999","7838","0.0012693","0.00062601","0","4331912","0 SPACEBEE-162","1 55095U 23001CQ  24151.75577936  .00062601  00000-0  12693-2 0  9990","2 55095  97.4200 217.6397 0010743 203.4744 156.6016 15.46110840 78383","2023-001CQ","55095","6806.253","93.137","435.430","420.806","0"
"GENERATED VIA SPACETRACK.ORG API","18 SPCS","55095","SPACEBEE-162","PAYLOAD","U","23001CQ","2024-05-31 03:27:30","89664","15.46177834","0.0010709","97.4201","218.0369","202.3908","157.6875","0","999","7844","0.0023238","0.00115718","0","4332216","0 SPACEBEE-162","1 55095U 23001CQ  24152.14409826  .00115718  00000-0  23238-2 0  9991","2 55095  97.4201 218.0369 0010709 202.3908 157.6875 15.46177834 78447","2023-001CQ","55095","6806.056","93.133","435.210","420.633","0"
"GENERATED VIA SPACETRACK.ORG API","18 SPCS","55095","SPACEBEE-162","PAYLOAD","U","23001CQ","2024-05-31 09:40:16","617504","15.46198415","0.0010681","97.4203","218.3022","201.5451","158.535","0","999","7848","0.0018602","0.00092406","0","4332502","0 SPACEBEE-162","1 55095U 23001CQ  24152.40297011  .00092406  00000-0  18602-2 0  9998","2 55095  97.4203 218.3022 0010681 201.5451 158.5350 15.46198415 78481","2023-001CQ","55095","6805.996","93.132","435.131","420.592","0"
"GENERATED VIA SPACETRACK.ORG API","18 SPCS","55095","SPACEBEE-162","PAYLOAD","U","23001CQ","2024-05-31 09:40:16","617504","15.46198415","0.0010681","97.4203","218.3022","201.5451","158.535","0","999","7848","0.0018602","0.00092406","0","4332540","0 SPACEBEE-162","1 55095U 23001CQ  24152.40297011  .00092406  00000-0  18602-2 0  9998","2 55095  97.4203 218.3022 0010681 201.5451 158.5350 15.46198415 78481","2023-001CQ","55095","6805.996","93.132","435.131","420.592","0"
"GENERATED VIA SPACETRACK.ORG API","18 SPCS","55095","SPACEBEE-162","PAYLOAD","U","23001CQ","2024-05-31 15:53:02","523264","15.46234589","0.0010641","97.4205","218.5675","201.0194","159.0619","0","999","7852","0.0013496","0.00066884","0","4333223","0 SPACEBEE-162","1 55095U 23001CQ  24152.66183476  .00066884  00000-0  13496-2 0  9992","2 55095  97.4205 218.5675 0010641 201.0194 159.0619 15.46234589 78526","2023-001CQ","55095","6805.890","93.129","434.997","420.513","0"
"GENERATED VIA SPACETRACK.ORG API","18 SPCS","55095","SPACEBEE-162","PAYLOAD","U","23001CQ","2024-06-01 02:45:21","767328","15.4629571","0.0010723","97.4207","219.0307","199.4359","160.6483","0","999","7859","0.0013724","0.00068171","0","4333222","0 SPACEBEE-162","1 55095U 23001CQ  24153.11483527  .00068171  00000-0  13724-2 0  9998","2 55095  97.4207 219.0307 0010723 199.4359 160.6483 15.46295710 78597","2023-001CQ","55095","6805.711","93.126","434.873","420.278","0"
"GENERATED VIA SPACETRACK.ORG API","18 SPCS","55095","SPACEBEE-162","PAYLOAD","U","23001CQ","2024-06-01 02:45:21","719808","15.46296565","0.0010735","97.4207","219.0307","199.291","160.7934","0","999","7859","0.0012073","0.00059899","0","4333553","0 SPACEBEE-162","1 55095U 23001CQ  24153.11483472  .00059899  00000-0  12073-2 0  9990","2 55095  97.4207 219.0307 0010735 199.2910 160.7934 15.46296565 78592","2023-001CQ","55095","6805.708","93.126","434.879","420.267","0"
"GENERATED VIA SPACETRACK.ORG API","18 SPCS","55095","SPACEBEE-162","PAYLOAD","U","23001CQ","2024-06-02 03:36:17","247168","15.4642783","0.0010802","97.4208","220.0906","196.0067","164.0843","0","999","7875","0.0012489","0.00062266","0","4334115","0 SPACEBEE-162","1 55095U 23001CQ  24154.15019962  .00062266  00000-0  12489-2 0  9997","2 55095  97.4208 220.0906 0010802 196.0067 164.0843 15.46427830 78758","2023-001CQ","55095","6805.323","93.118","434.539","419.837","0"
"GENERATED VIA SPACETRACK.ORG API","18 SPCS","55095","SPACEBEE-162","PAYLOAD","U","23001CQ","2024-06-02 03:36:17","247168","15.4642783","0.0010802","97.4208","220.0906","196.0067","164.0843","0","999","7875","0.0012489","0.00062266","0","4334418","0 SPACEBEE-162","1 55095U 23001CQ  24154.15019962  .00062266  00000-0  12489-2 0  9997","2 55095  97.4208 220.0906 0010802 196.0067 164.0843 15.46427830 78758","2023-001CQ","55095","6805.323","93.118","434.539","419.837","0"
